NORAD_CAT_ID,OBJECT_NAME,OBJECT_TYPE,EPOCH,MEAN_MOTION,ECCENTRICITY,INCLINATION,RA_OF_ASC_NODE,ARG_OF_PERICENTER,MEAN_ANOMALY,BSTAR,MEAN_MOTION_DOT,MEAN_MOTION_DDOT,TLE_LINE0,TLE_LINE1,TLE_LINE2,SEMIMAJOR_AXIS,PERIOD,APOGEE,PERIGEE,DECAYED
53896.0,STARLINK-5037,PAYLOAD,2023-11-01 22:21:57,15.08839948,0.0001952,53.219,219.0731,111.6766,248.4434,0.000108,1.431e-05,0.0,0 STARLINK-5037,1 53896U 22119L   23305.93192080  .00001431  00000-0  10800-3 0  9992,2 53896  53.2190 219.0731 0001952 111.6766 248.4434 15.08839948 62047,6917.881,95.438,541.096,538.395,0.0
53896.0,STARLINK-5037,PAYLOAD,2023-11-02 11:05:02,15.08846261,0.0001535,53.2183,216.6967,92.9778,267.139,0.00022092,3.23e-05,0.0,0 STARLINK-5037,1 53896U 22119L   23306.46184020  .00003230  00000-0  22092-3 0  9991,2 53896  53.2183 216.6967 0001535  92.9778 267.1390 15.08846261 62128,6917.861,95.437,540.788,538.664,0.0
53896.0,STARLINK-5037,PAYLOAD,2023-11-02 22:12:45,15.08834195,0.0001559,53.2173,214.6121,86.8324,273.2847,-3.3202e-05,-8.16e-06,0.0,0 STARLINK-5037,1 53896U 22119L   23306.92552368 -.00000816  00000-0 -33202-4 0  9991,2 53896  53.2173 214.6121 0001559  86.8324 273.2847 15.08834195 62197,6917.898,95.438,540.842,538.685,0.0
53896.0,STARLINK-5037,PAYLOAD,2023-11-03 02:58:54,15.08845787,0.0001657,53.2172,213.7187,82.7508,277.3672,9.7353e-05,1.262e-05,0.0,0 STARLINK-5037,1 53896U 22119L   23307.12424028  .00001262  00000-0  97353-4 0  9996,2 53896  53.2172 213.7187 0001657  82.7508 277.3672 15.08845787 61803,6917.863,95.437,540.874,538.581,0.0
53896.0,STARLINK-5037,PAYLOAD,2023-11-03 22:03:32,15.08838735,0.0001673,53.2173,210.1483,79.0928,281.0252,0.00010428,1.372e-05,0.0,0 STARLINK-5037,1 53896U 22119L   23307.91912479  .00001372  00000-0  10428-3 0  9994,2 53896  53.2173 210.1483 0001673  79.0928 281.0252 15.08838735 62348,6917.884,95.438,540.907,538.592,0.0
53896.0,STARLINK-5037,PAYLOAD,2023-11-04 10:46:37,15.0883725,0.0001904,53.2174,207.7738,76.718,283.4024,2.5867e-05,1.24e-06,0.0,0 STARLINK-5037,1 53896U 22119L   23308.44904576  .00000124  00000-0  25867-4 0  9990,2 53896  53.2174 207.7738 0001904  76.7180 283.4024 15.08837250 62002,6917.889,95.438,541.071,538.437,0.0
53896.0,STARLINK-5037,PAYLOAD,2023-11-04 21:54:19,15.08837589,0.0001365,53.2175,205.6883,90.7536,269.3612,7.0281e-05,8.31e-06,0.0,0 STARLINK-5037,1 53896U 22119L   23308.91272463  .00000831  00000-0  70281-4 0  9990,2 53896  53.2175 205.6883 0001365  90.7536 269.3612 15.08837589 62497,6917.888,95.438,540.697,538.808,0.0
53896.0,STARLINK-5037,PAYLOAD,2023-11-05 10:37:24,15.08846964,0.0001246,53.2166,203.3119,83.5686,276.5448,0.00025554,3.782e-05,0.0,0 STARLINK-5037,1 53896U 22119L   23309.44264293  .00003782  00000-0  25554-3 0  9991,2 53896  53.2166 203.3119 0001246  83.5686 276.5448 15.08846964 62571,6917.859,95.437,540.586,538.862,0.0
53896.0,STARLINK-5037,PAYLOAD,2023-11-05 23:20:29,15.08855021,0.0001251,53.216,200.9295,109.1469,250.9659,0.00046704,7.156e-05,0.0,0 STARLINK-5037,1 53896U 22119L   23309.97256010  .00007156  00000-0  46704-3 0  9996,2 53896  53.2160 200.9295 0001251 109.1469 250.9659 15.08855021 62656,6917.834,95.437,540.565,538.834,0.0
53896.0,STARLINK-5037,PAYLOAD,2023-11-06 10:28:10,15.08860031,0.0001615,53.2167,198.8488,93.3502,266.7675,0.00050491,7.761e-05,0.0,0 STARLINK-5037,1 53896U 22119L   23310.43623653  .00007761  00000-0  50491-3 0  9990,2 53896  53.2167 198.8488 0001615  93.3502 266.7675 15.08860031 62726,6917.819,95.436,540.801,538.567,0.0
53896.0,STARLINK-5037,PAYLOAD,2023-11-06 20:00:30,15.08829556,0.0001229,53.2176,197.0663,86.1046,274.0087,-0.00039896,-6.63e-05,0.0,0 STARLINK-5037,1 53896U 22119L   23310.83368246 -.00006630  00000-0 -39896-3 0  9990,2 53896  53.2176 197.0663 0001229  86.1046 274.0087 15.08829556 62362,6917.912,95.438,540.628,538.927,0.0
53896.0,STARLINK-5037,PAYLOAD,2023-11-06 23:11:17,15.08811483,0.000149,53.2173,196.4721,85.6935,274.4228,-0.0008221,-0.00013338,0.0,0 STARLINK-5037,1 53896U 22119L   23310.96617011 -.00013338  00000-0 -82210-3 0  9992,2 53896  53.2173 196.4721 0001490  85.6935 274.4228 15.08811483 62808,6917.968,95.439,540.863,538.802,0.0
53896.0,STARLINK-5037,PAYLOAD,2023-11-07 02:22:03,15.08810075,0.0001365,53.2174,195.8761,84.9336,275.1812,-0.00067107,-0.00010943,0.0,0 STARLINK-5037,1 53896U 22119L   23311.09865195 -.00010943  00000-0 -67107-3 0  9992,2 53896  53.2174 195.8761 0001365  84.9336 275.1812 15.08810075 62403,6917.972,95.439,540.781,538.893,0.0
53896.0,STARLINK-5037,PAYLOAD,2023-11-07 19:51:18,15.08827206,0.0001474,53.2176,192.609,81.5286,278.5873,3.0223e-05,1.93e-06,0.0,0 STARLINK-5037,1 53896U 22119L   23311.82729756  .00000193  00000-0  30223-4 0  9999,2 53896  53.2176 192.6090 0001474  81.5286 278.5873 15.08827206 62513,6917.919,95.438,540.804,538.765,0.0
53896.0,STARLINK-5037,PAYLOAD,2023-11-08 02:12:51,15.08840537,0.0001348,53.2168,191.4158,87.9791,272.1355,0.00084382,0.00013167,0.0,0 STARLINK-5037,1 53896U 22119L   23312.09225869  .00013167  00000-0  84382-3 0  9994,2 53896  53.2168 191.4158 0001348  87.9791 272.1355 15.08840537 62558,6917.879,95.438,540.676,538.811,0.0
53896.0,STARLINK-5037,PAYLOAD,2023-11-08 22:52:51,15.088515,0.0001364,53.2166,187.554,99.6353,260.4794,0.00049364,7.58e-05,0.0,0 STARLINK-5037,1 53896U 22119L   23312.95337301  .00007580  00000-0  49364-3 0  9997,2 53896  53.2166 187.5540 0001364  99.6353 260.4794 15.08851500 63100,6917.845,95.437,540.654,538.767,0.0
53896.0,STARLINK-5037,PAYLOAD,2023-11-09 19:32:52,15.08848899,0.0001636,53.2168,183.6912,111.3511,248.7655,7.2325e-05,8.63e-06,0.0,0 STARLINK-5037,1 53896U 22119L   23313.81449130  .00000863  00000-0  72325-4 0  9998,2 53896  53.2168 183.6912 0001636 111.3511 248.7655 15.08848899 62811,6917.853,95.437,540.85,538.586,0.0
53896.0,STARLINK-5037,PAYLOAD,2023-11-09 22:43:38,15.08842226,0.000142,53.2166,183.0926,96.3717,263.7437,-3.5894e-05,-8.59e-06,0.0,0 STARLINK-5037,1 53896U 22119L   23313.94697024 -.00000859  00000-0 -35894-4 0  9996,2 53896  53.2166 183.0926 0001420  96.3717 263.7437 15.08842226 63251,6917.874,95.437,540.721,538.756,0.0
53896.0,STARLINK-5037,PAYLOAD,2023-11-10 08:15:57,15.08841652,0.0001331,53.2158,181.3069,89.4571,270.6573,-1.7881e-05,-5.72e-06,0.0,0 STARLINK-5037,1 53896U 22119L   23314.34441151 -.00000572  00000-0 -17881-4 0  9997,2 53896  53.2158 181.3069 0001331  89.4571 270.6573 15.08841652 62892,6917.875,95.437,540.661,538.82,0.0
53896.0,STARLINK-5037,PAYLOAD,2023-11-10 22:34:25,15.08847711,0.000145,53.2159,178.6313,102.3005,257.815,2.7799e-08,-2.88e-06,0.0,0 STARLINK-5037,1 53896U 22119L   23314.94056886 -.00000288  00000-0  27799-7 0  9995,2 53896  53.2159 178.6313 0001450 102.3005 257.8150 15.08847711 63401,6917.857,95.437,540.725,538.719,0.0
53896.0,STARLINK-5037,PAYLOAD,2023-11-11 00:09:48,15.08849728,0.0001438,53.2162,178.3343,99.4495,260.666,5.6025e-05,6.04e-06,0.0,0 STARLINK-5037,1 53896U 22119L   23315.00680765  .00000604  00000-0  56025-4 0  9994,2 53896  53.2162 178.3343 0001438  99.4495 260.6660 15.08849728 62991,6917.851,95.437,540.71,538.721,0.0
53896.0,STARLINK-5037,PAYLOAD,2023-11-11 20:49:49,15.08839746,0.0001477,53.216,174.4673,88.9925,271.1237,5.5029e-05,5.88e-06,0.0,0 STARLINK-5037,1 53896U 22119L   23315.86793372  .00000588  00000-0  55029-4 0  9991,2 53896  53.2160 174.4673 0001477  88.9925 271.1237 15.08839746 63128,6917.881,95.438,540.768,538.724,0.0
53896.0,STARLINK-5037,PAYLOAD,2023-11-12 00:00:36,15.0882899,0.0001502,53.2169,173.8714,87.9101,272.2063,0.00027571,4.101e-05,0.0,0 STARLINK-5037,1 53896U 22119L   23316.00041835  .00004101  00000-0  27571-3 0  9993,2 53896  53.2169 173.8714 0001502  87.9101 272.2063 15.08828990 63140,6917.914,95.438,540.818,538.74,0.0
53896.0,STARLINK-5037,PAYLOAD,2023-11-12 07:57:31,15.08844833,0.0001384,53.2173,172.3841,84.3261,275.7889,3.0247e-05,1.94e-06,0.0,0 STARLINK-5037,1 53896U 22119L   23316.33161219  .00000194  00000-0  30247-4 0  9991,2 53896  53.2173 172.3841 0001384  84.3261 275.7889 15.08844833 63199,6917.866,95.437,540.688,538.773,0.0
53896.0,STARLINK-5037,PAYLOAD,2023-11-12 20:40:35,15.08851718,0.0001361,53.2166,170.0047,105.8423,254.2719,5.1247e-05,5.28e-06,0.0,0 STARLINK-5037,1 53896U 22119L   23316.86152702  .00000528  00000-0  51247-4 0  9990,2 53896  53.2166 170.0047 0001361 105.8423 254.2719 15.08851718 63697,6917.845,95.437,540.651,538.768,0.0
53896.0,STARLINK-5037,PAYLOAD,2023-11-13 07:48:18,15.0884108,0.00014,53.2163,167.9228,97.833,262.2821,0.00012534,1.707e-05,0.0,0 STARLINK-5037,1 53896U 22119L   23317.32521158  .00001707  00000-0  12534-3 0  9992,2 53896  53.2163 167.9228 0001400  97.8330 262.2821 15.08841080 63763,6917.877,95.437,540.711,538.774,0.0
53896.0,STARLINK-5037,PAYLOAD,2023-11-13 20:31:23,15.08845809,0.0001393,53.2159,165.5433,93.1058,267.0093,9.1182e-05,1.164e-05,0.0,0 STARLINK-5037,1 53896U 22119L   23317.85512818  .00001164  00000-0  91182-4 0  9997,2 53896  53.2159 165.5433 0001393  93.1058 267.0093 15.08845809 63427,6917.863,95.437,540.691,538.764,0.0
53896.0,STARLINK-5037,PAYLOAD,2023-11-13 23:42:09,15.08845435,0.000139,53.2161,164.9485,93.1951,266.92,7.5978e-05,9.22e-06,0.0,0 STARLINK-5037,1 53896U 22119L   23317.98760827  .00000922  00000-0  75978-4 0  9992,2 53896  53.2161 164.9485 0001390  93.1951 266.9200 15.08845435 63860,6917.864,95.437,540.69,538.767,0.0
53896.0,STARLINK-5037,PAYLOAD,2023-11-14 20:22:10,15.08840767,0.000143,53.2161,161.0829,92.2983,267.8173,1.8196e-05,2e-08,0.0,0 STARLINK-5037,1 53896U 22119L   23318.84873179  .00000002  00000-0  18196-4 0  9991,2 53896  53.2161 161.0829 0001430  92.2983 267.8173 15.08840767 63570,6917.878,95.438,540.732,538.754,0.0
53896.0,STARLINK-5037,PAYLOAD,2023-11-15 13:51:25,15.0883838,0.0001395,53.2139,157.8127,89.876,270.2392,2.8378e-05,1.64e-06,0.0,0 STARLINK-5037,1 53896U 22119L   23319.57737318  .00000164  00000-0  28378-4 0  9998,2 53896  53.2139 157.8127 0001395  89.8760 270.2392 15.08838380 64103,6917.885,95.438,540.715,538.785,0.0
